NORAD_CAT_ID,OBJECT_NAME,OBJECT_TYPE,EPOCH,MEAN_MOTION,ECCENTRICITY,INCLINATION,RA_OF_ASC_NODE,ARG_OF_PERICENTER,MEAN_ANOMALY,BSTAR,MEAN_MOTION_DOT,MEAN_MOTION_DDOT,TLE_LINE0,TLE_LINE1,TLE_LINE2,SEMIMAJOR_AXIS,PERIOD,APOGEE,PERIGEE,DECAYED
49729.0,STARLINK-3251,PAYLOAD,2023-03-07 05:52:07,15.08849049,0.0001185,53.217,50.2339,99.9605,260.1521,0.0010158,0.00015919,0.0,0 STARLINK-3251,1 49729U 21115F   23066.24453669  .00015919  00000-0  10158-2 0  9999,2 49729  53.2170  50.2339 0001185  99.9605 260.1521 15.08849049 70671,6917.853,95.437,540.537,538.898,0.0
49729.0,STARLINK-3251,PAYLOAD,2023-03-07 15:24:27,15.08845453,0.0001043,53.216,48.4478,88.2939,271.8172,0.0011349,0.00017823,0.0,0 STARLINK-3251,1 49729U 21115F   23066.64198023  .00017823  00000-0  11349-2 0  9992,2 49729  53.2160  48.4478 0001043  88.2939 271.8172 15.08845453 70730,6917.864,95.437,540.45,539.007,0.0
49729.0,STARLINK-3251,PAYLOAD,2023-03-08 05:42:55,15.08849605,0.0001222,53.2166,45.7759,101.877,258.2359,0.0012633,0.0001988,0.0,0 STARLINK-3251,1 49729U 21115F   23067.23814311  .00019880  00000-0  12633-2 0  9995,2 49729  53.2166  45.7759 0001222 101.8770 258.2359 15.08849605 70821,6917.851,95.437,540.561,538.871,0.0
49729.0,STARLINK-3251,PAYLOAD,2023-03-08 15:15:14,15.08852196,0.0001131,53.216,43.9897,98.4015,261.7106,0.0010729,0.00016834,0.0,0 STARLINK-3251,1 49729U 21115F   23067.63558287  .00016834  00000-0  10729-2 0  9996,2 49729  53.2160  43.9897 0001131  98.4015 261.7106 15.08852196 70884,6917.843,95.437,540.491,538.926,0.0
49729.0,STARLINK-3251,PAYLOAD,2023-03-09 03:58:19,15.08848971,0.0001209,53.2161,41.6082,87.3822,272.7308,0.00046102,7.059e-05,0.0,0 STARLINK-3251,1 49729U 21115F   23068.16550161  .00007059  00000-0  46102-3 0  9992,2 49729  53.2161  41.6082 0001209  87.3822 272.7308 15.08848971 70966,6917.853,95.437,540.554,538.882,0.0
49729.0,STARLINK-3251,PAYLOAD,2023-03-09 08:44:27,15.08866128,0.0001665,53.2163,40.7165,145.5168,214.5932,0.00076494,0.00011916,0.0,0 STARLINK-3251,1 49729U 21115F   23068.36421161  .00011916  00000-0  76494-3 0  9995,2 49729  53.2163  40.7165 0001665 145.5168 214.5932 15.08866128 70990,6917.801,95.436,540.817,538.514,0.0
49729.0,STARLINK-3251,PAYLOAD,2023-03-10 05:24:28,15.0886713,0.0001068,53.2168,36.8533,108.4113,251.6995,0.00061283,9.486e-05,0.0,0 STARLINK-3251,1 49729U 21115F   23069.22532907  .00009486  00000-0  61283-3 0  9991,2 49729  53.2168  36.8533 0001068 108.4113 251.6995 15.08867130 71126,6917.797,95.436,540.401,538.924,0.0
49729.0,STARLINK-3251,PAYLOAD,2023-03-10 14:56:48,15.08825758,0.0002133,53.2172,35.0688,81.9872,278.1362,-0.0002798,-4.737e-05,0.0,0 STARLINK-3251,1 49729U 21115F   23069.62278195 -.00004737  00000-0 -27980-3 0  9993,2 49729  53.2172  35.0688 0002133  81.9872 278.1362 15.08825758 71182,6917.924,95.438,541.265,538.313,0.0
49729.0,STARLINK-3251,PAYLOAD,2023-03-11 06:50:39,15.08834481,0.0001639,53.2186,32.0927,126.4125,233.7019,0.00021679,3.163e-05,0.0,0 STARLINK-3251,1 49729U 21115F   23070.28518431  .00003163  00000-0  21679-3 0  9996,2 49729  53.2186  32.0927 0001639 126.4125 233.7019 15.08834481 71286,6917.897,95.438,540.896,538.628,0.0
49729.0,STARLINK-3251,PAYLOAD,2023-03-11 21:09:08,15.08833184,0.0001506,53.2188,29.417,110.2054,249.91,0.00030275,4.533e-05,0.0,0 STARLINK-3251,1 49729U 21115F   23070.88135129  .00004533  00000-0  30275-3 0  9995,2 49729  53.2188  29.4170 0001506 110.2054 249.9100 15.08833184 70269,6917.901,95.438,540.808,538.724,0.0
49729.0,STARLINK-3251,PAYLOAD,2023-03-12 06:41:27,15.08850616,0.0002373,53.217,27.6335,78.9741,281.1518,0.00035604,5.384e-05,0.0,0 STARLINK-3251,1 49729U 21115F   23071.27878744  .00005384  00000-0  35604-3 0  9992,2 49729  53.2170  27.6335 0002373  78.9741 281.1518 15.08850616 70326,6917.848,95.437,541.355,538.071,0.0
49729.0,STARLINK-3251,PAYLOAD,2023-03-12 20:59:55,15.08842078,0.000109,53.2171,24.9582,80.43,279.6815,0.00036055,5.455e-05,0.0,0 STARLINK-3251,1 49729U 21115F   23071.87494840  .00005455  00000-0  36055-3 0  9999,2 49729  53.2171  24.9582 0001090  80.4300 279.6815 15.08842078 71523,6917.874,95.437,540.493,538.985,0.0
49729.0,STARLINK-3251,PAYLOAD,2023-03-13 06:32:13,15.08854385,0.0001416,53.2155,23.1685,109.8339,250.2806,0.00050596,7.777e-05,0.0,0 STARLINK-3251,1 49729U 21115F   23072.27238137  .00007777  00000-0  50596-3 0  9994,2 49729  53.2155  23.1685 0001416 109.8339 250.2806 15.08854385 71585,6917.836,95.437,540.681,538.722,0.0
49729.0,STARLINK-3251,PAYLOAD,2023-03-13 20:50:42,15.08833735,9.77e-05,53.2173,20.493,132.4172,227.6903,-0.0002395,-4.097e-05,0.0,0 STARLINK-3251,1 49729U 21115F   23072.86854323 -.00004097  00000-0 -23950-3 0  9998,2 49729  53.2173  20.4930 0000977 132.4172 227.6903 15.08833735 71678,6917.9,95.438,540.44,539.089,0.0
49729.0,STARLINK-3251,PAYLOAD,2023-03-14 12:44:33,15.08850086,8.72e-05,53.2176,17.5238,103.824,256.2849,0.00043886,6.705e-05,0.0,0 STARLINK-3251,1 49729U 21115F   23073.53094241  .00006705  00000-0  43886-3 0  9994,2 49729  53.2176  17.5238 0000872 103.8240 256.2849 15.08850086 71777,6917.85,95.437,540.318,539.111,0.0
49729.0,STARLINK-3251,PAYLOAD,2023-03-14 20:41:29,15.08846323,0.000101,53.2178,16.0381,109.7418,250.3683,0.00037598,5.702e-05,0.0,0 STARLINK-3251,1 49729U 21115F   23073.86214575  .00005702  00000-0  37598-3 0  9993,2 49729  53.2178  16.0381 0001010 109.7418 250.3683 15.08846323 71825,6917.861,95.437,540.425,539.027,0.0
49729.0,STARLINK-3251,PAYLOAD,2023-03-15 04:38:24,15.08865624,8.25e-05,53.2173,14.5501,88.3064,271.8023,0.0010909,0.00017128,0.0,0 STARLINK-3251,1 49729U 21115F   23074.19333850  .00017128  00000-0  10909-2 0  9999,2 49729  53.2173  14.5501 0000825  88.3064 271.8023 15.08865624 71875,6917.802,95.436,540.238,539.096,0.0
49729.0,STARLINK-3251,PAYLOAD,2023-03-15 06:13:47,15.08868807,8.32e-05,53.2173,14.2526,86.881,273.2277,0.0011601,0.00018238,0.0,0 STARLINK-3251,1 49729U 21115F   23074.25957744  .00018238  00000-0  11601-2 0  9993,2 49729  53.2173  14.2526 0000832  86.8810 273.2277 15.08868807 70770,6917.792,95.436,540.233,539.082,0.0
49729.0,STARLINK-3251,PAYLOAD,2023-03-15 20:32:16,15.0884713,0.0001163,53.2171,11.5743,83.6616,276.4509,0.00017455,2.492e-05,0.0,0 STARLINK-3251,1 49729U 21115F   23074.85574251  .00002492  00000-0  17455-3 0  9996,2 49729  53.2171  11.5743 0001163  83.6616 276.4509 15.08847130 71978,6917.859,95.437,540.528,538.919,0.0
49729.0,STARLINK-3251,PAYLOAD,2023-03-16 04:29:11,15.08858186,0.0001153,53.2174,10.0904,74.4683,285.6436,0.00085584,0.00013366,0.0,0 STARLINK-3251,1 49729U 21115F   23075.18694035  .00013366  00000-0  85584-3 0  9996,2 49729  53.2174  10.0904 0001153  74.4683 285.6436 15.08858186 72026,6917.825,95.436,540.487,538.892,0.0
49729.0,STARLINK-3251,PAYLOAD,2023-03-16 20:23:04,15.08831255,0.0001803,53.2177,7.1164,81.1582,278.9615,0.00044914,6.866e-05,0.0,0 STARLINK-3251,1 49729U 21115F   23075.84935234  .00006866  00000-0  44914-3 0  9997,2 49729  53.2177   7.1164 0001803  81.1582 278.9615 15.08831255 72122,6917.907,95.438,541.019,538.525,0.0
49729.0,STARLINK-3251,PAYLOAD,2023-03-17 04:19:59,15.0883703,0.0001136,53.2165,5.6297,90.1428,269.9694,0.0010069,0.00015772,0.0,0 STARLINK-3251,1 49729U 21115F   23076.18055219  .00015772  00000-0  10069-2 0  9990,2 49729  53.2165   5.6297 0001136  90.1428 269.9694 15.08837030 71063,6917.889,95.438,540.54,538.969,0.0
49729.0,STARLINK-3251,PAYLOAD,2023-03-17 18:38:28,15.0884195,0.0001162,53.2163,2.9544,91.5424,268.5701,0.00070863,0.00011008,0.0,0 STARLINK-3251,1 49729U 21115F   23076.77671433  .00011008  00000-0  70863-3 0  9994,2 49729  53.2163   2.9544 0001162  91.5424 268.5701 15.08841950 71156,6917.874,95.437,540.543,538.936,0.0
49729.0,STARLINK-3251,PAYLOAD,2023-03-18 04:10:46,15.08850416,0.0001178,53.2162,1.1687,88.4958,271.6169,0.00072376,0.00011253,0.0,0 STARLINK-3251,1 49729U 21115F   23077.17415280  .00011253  00000-0  72376-3 0  9998,2 49729  53.2162   1.1687 0001178  88.4958 271.6169 15.08850416 72328,6917.849,95.437,540.528,538.899,0.0
49729.0,STARLINK-3251,PAYLOAD,2023-03-18 18:29:15,15.08804755,0.0001557,53.2164,358.4926,97.1012,263.0157,-0.0010465,-0.00016888,0.0,0 STARLINK-3251,1 49729U 21115F   23077.77032343 -.00016888  00000-0 -10465-2 0  9990,2 49729  53.2164 358.4926 0001557  97.1012 263.0157 15.08804755 72410,6917.988,95.44,540.93,538.776,0.0
49729.0,STARLINK-3251,PAYLOAD,2023-03-19 05:37:10,15.08446145,0.0001092,53.217,356.4125,78.8606,281.2509,-0.0089473,-0.00138457,0.0,0 STARLINK-3251,1 49729U 21115F   23078.23415181 -.00138457  00000-0 -89473-2 0  9999,2 49729  53.2170 356.4125 0001092  78.8606 281.2509 15.08446145 72480,6919.085,95.462,541.705,540.194,0.0
49729.0,STARLINK-3251,PAYLOAD,2023-03-19 11:58:52,15.08320592,0.0001357,53.2171,355.2239,72.7087,287.4053,-0.0094296,-0.0014527,0.0,0 STARLINK-3251,1 49729U 21115F   23078.49922078 -.00145270  00000-0 -94296-2 0  9995,2 49729  53.2171 355.2239 0001357  72.7087 287.4053 15.08320592 72528,6919.468,95.47,542.272,540.394,0.0
49729.0,STARLINK-3251,PAYLOAD,2023-03-19 18:20:35,15.08243454,0.0001952,53.2172,354.0344,88.6529,271.4686,-0.0080495,-0.00124159,0.0,0 STARLINK-3251,1 49729U 21115F   23078.76429771 -.00124159  00000-0 -80495-2 0  9996,2 49729  53.2172 354.0344 0001952  88.6529 271.4686 15.08243454 72561,6919.704,95.475,542.92,540.219,0.0
49729.0,STARLINK-3251,PAYLOAD,2023-03-19 21:31:27,15.08183619,6.05e-05,53.2184,353.4401,85.3622,274.7439,-0.0076952,-0.00118596,0.0,0 STARLINK-3251,1 49729U 21115F   23078.89684707 -.00118596  00000-0 -76952-2 0  9993,2 49729  53.2184 353.4401 0000605  85.3622 274.7439 15.08183619 71470,6919.887,95.479,542.171,541.334,0.0
49729.0,STARLINK-3251,PAYLOAD,2023-03-20 05:28:37,15.0819469,7.55e-05,53.2184,351.9535,84.2658,275.842,-0.005766,-0.00089327,0.0,0 STARLINK-3251,1 49729U 21115F   23079.22821751 -.00089327  00000-0 -57660-2 0  9997,2 49729  53.2184 351.9535 0000755  84.2658 275.8420 15.08194690 72636,6919.854,95.478,542.241,541.196,0.0
